STARLINK-32090          
1 59691U 24086K   25093.52559000 -.00003761  00000+0 -12731-3 0  9990
2 59691  43.0014 184.8316 0001775 261.3323  98.7327 15.27558047 52046
STARLINK-32095          
1 59692U 24086L   25093.58335648  .00580342  00000+0  20698-2 0  9990
2 59692  42.9839 149.2878 0001962  31.8429 272.0612 15.86625346 52364
STARLINK-32088          
1 59693U 24086M   25093.54093706 -.00000340  00000+0 -84365-6 0  9995
2 59693  43.0055 180.6424 0003546 293.5618  66.4866 15.40656371 52098
STARLINK-32107          
1 59694U 24086N   25093.51323075 -.00002902  00000+0 -95993-4 0  9991
2 59694  43.0044 181.2867 0002503 271.8335  88.2230 15.27562199 52087
STARLINK-32104          
1 59695U 24086P   25093.51239087  .00001904  00000+0  78698-4 0  9993
2 59695  43.0022 177.7433 0001013 283.4012  76.6727 15.27583757 52129
STARLINK-32094          
1 59696U 24086Q   25093.51708012 -.00002918  00000+0 -96636-4 0  9993
2 59696  43.0007 181.3133 0001267 265.1218  94.9489 15.27554306 52088
STARLINK-32099          
1 59697U 24086R   25093.58335648 -.00331675  00000+0 -12193-1 0  9990
2 59697  42.9992 180.5146 0001547 282.2958 264.2482 15.28626090 52027
STARLINK-32096          
1 59698U 24086S   25093.58335648  .00094708  00000+0  34117-2 0  9993
2 59698  42.9995 180.6064 0001185 287.8286 218.5833 15.27536755  5863
STARLINK-32102          
1 59699U 24086T   25093.58335648  .00073294  00000+0  25828-2 0  9990
2 59699  42.9994 180.5657 0001277 282.3350 241.9815 15.28379974  5953
STARLINK-32092          
1 59700U 24086U   25093.50421562 -.00002899  00000+0 -93454-4 0  9993
2 59700  43.0056 181.2195 0002255 261.5830  98.4767 15.28381889 52086
STARLINK-32093          
1 59701U 24086V   25093.30286803  .00011066  00000+0  41054-3 0  9991
2 59701  43.0024 182.2896 0001742 260.6311  99.4344 15.27621631 52055
STARLINK-32087          
1 59702U 24086W   25093.58335648 -.00031871  00000+0 -11257-2 0  9993
2 59702  42.9994 180.5900 0001317 274.2619 238.8942 15.28378925  5852
STARLINK-32086          
1 59703U 24086X   25093.58335648 -.01046875  00000+0 -37003-1 0  9991
2 59703  42.9995 180.5067 0001150 288.3705 261.4358 15.31236678  5759
STARLINK-32098          
1 59704U 24086Y   25093.50938197 -.00002188  00000+0 -70083-4 0  9998
2 59704  43.0040 181.2565 0002068 262.5324  97.5293 15.27542350 52080
STARLINK-11107 [DTC]    
1 59708U 24088A   25093.54965038  .00000723  00000+0  10828-4 0  9994
2 59708  53.1577 202.7355 0000855  95.3507 264.7608 15.69704475 52839
STARLINK-11088 [DTC]    
1 59709U 24088B   25093.53994017 -.00019818  00000+0 -15941-3 0  9990
2 59709  53.1572 203.3998 0001286  90.0852 270.0314 15.69663951 52847
STARLINK-11092 [DTC]    
1 59710U 24088C   25093.59870984 -.00001010  00000+0 -34889-5 0  9993
2 59710  53.1596 203.0503 0000801  99.1123 260.9985 15.69698689 52856
STARLINK-11082 [DTC]    
1 59711U 24088D   25093.53013622 -.00003609  00000+0 -24971-4 0  9992
2 59711  53.1580 203.3336 0000993 103.4692 256.6437 15.69686627 52841
STARLINK-11108 [DTC]    
1 59712U 24088E   25093.58889720 -.00000432  00000+0  12909-5 0  9997
2 59712  53.1593 202.9856 0001275 135.7337 224.3784 15.69700903 52858
STARLINK-11100 [DTC]    
1 59713U 24088F   25093.58399436 -.00000017  00000+0  47237-5 0  9999
2 59713  53.1593 202.9524 0001267  81.5715 278.5446 15.69693544 52858
STARLINK-11094 [DTC]    
1 59714U 24088G   25093.57909399 -.00007613  00000+0 -58130-4 0  9997
2 59714  53.1571 202.9211 0001003  72.2337 287.8790 15.69673071 52705
STARLINK-11101 [DTC]    
1 59715U 24088H   25093.56928155  .00015662  00000+0  13377-3 0  9992
2 59715  53.1567 202.8532 0001582 126.9212 233.1951 15.69732140 52859
STARLINK-11099 [DTC]    
1 59716U 24088J   25093.57418364 -.00000209  00000+0  31359-5 0  9994
2 59716  53.1590 202.8895 0001315  76.9279 283.1885 15.69693145 52749
STARLINK-11084 [DTC]    
1 59717U 24088K   25093.56439244 -.00003231  00000+0 -21860-4 0  9998
2 59717  53.1590 202.8177 0001464 114.3419 245.7752 15.69665539 52856
STARLINK-11103 [DTC]    
1 59718U 24088L   25093.55946559 -.00000718  00000+0 -10621-5 0  9991
2 59718  53.1593 202.7837 0001531 118.6591 241.4581 15.69698276 52852
STARLINK-11096 [DTC]    
1 59719U 24088M   25093.54486678 -.00000964  00000+0 -31005-5 0  9994
2 59719  53.1586 203.4278 0001354  80.0801 280.0370 15.69678457 52844
STARLINK-11095 [DTC]    
1 59720U 24088N   25093.55455972 -.00000626  00000+0 -30885-6 0  9991
2 59720  53.1594 202.7503 0001247 128.1035 232.0095 15.69695935 52854
STARLINK-31834          
1 59721U 24088P   25093.23082185  .00002841  00000+0  10807-3 0  9997
2 59721  53.1591 281.5010 0001100 100.9285 259.1839 15.30180484 51731
STARLINK-31843          
1 59722U 24088Q   25093.24137493  .00000672  00000+0  34829-4 0  9993
2 59722  53.1626 281.5636 0001248  95.0602 265.0541 15.30191945 51555
STARLINK-31766          
1 59723U 24088R   25093.48151759 -.00003183  00000+0 -95399-4 0  9992
2 59723  53.1576 280.2224 0000816  96.0368 264.0726 15.30202231 51598
STARLINK-31836          
1 59724U 24088S   25093.22450209 -.00000123  00000+0  79641-5 0  9990
2 59724  53.1605 281.4574 0001340  82.3740 277.7413 15.30193260 51559
STARLINK-31820          
1 59725U 24088T   25092.84209096  .00002737  00000+0  10450-3 0  9997
2 59725  53.1597 283.3395 0000682  78.4694 281.6384 15.30199959 51411
STARLINK-31642          
1 59726U 24088U   25093.49946953 -.00001562  00000+0 -40613-4 0  9992
2 59726  53.1593 280.3348 0001171  73.2228 286.8901 15.30199008 51599
STARLINK-31827          
1 59727U 24088V   25093.24453203  .00000438  00000+0  26909-4 0  9998
2 59727  53.1606 281.5853 0001313  69.8729 290.2413 15.30199155 51673
STARLINK-31472          
1 59730U 24090A   25093.57082812 -.00002381  00000+0 -77031-4 0  9998
2 59730  43.0001 304.2854 0000483 285.9964  74.0834 15.27588373 51425
STARLINK-31817          
1 59731U 24090B   25093.29128953 -.00001758  00000+0 -54355-4 0  9996
2 59731  43.0024 305.6297 0002005 266.3733  93.6889 15.27581620 51386
STARLINK-31841          
1 59732U 24090C   25093.58335648  .00070376  00000+0  11220-2 0  9992
2 59732  42.9974 273.5398 0006432 295.5690 149.1821 15.52314067  6018
STARLINK-31833          
1 59733U 24090D   25092.01568575  .00003144  00000+0  12373-3 0  9997
2 59733  43.0047 313.2490 0000980 254.4202 105.6541 15.27576927 51183
STARLINK-31849          
1 59734U 24090E   25093.54514759 -.00002508  00000+0 -52807-4 0  9994
2 59734  43.0002 299.7725 0001636 316.3341  43.7386 15.40691807 51476
STARLINK-31661          
1 59735U 24090F   25093.29254546 -.00000420  00000+0 -27920-5 0  9992
2 59735  43.0067 301.3102 0001375 306.2875  53.7854 15.40688542 51436
STARLINK-31707          
1 59736U 24090G   25093.56698089 -.00001455  00000+0 -43385-4 0  9998
2 59736  43.0019 304.2570 0001052 305.3639  54.7114 15.27572523 51420
STARLINK-31821          
1 59737U 24090H   25093.57853696  .00000410  00000+0  24426-4 0  9990
2 59737  43.0036 304.3435 0001582 289.4002  70.6679 15.27588686 51425
STARLINK-31819          
1 59738U 24090J   25093.57468808  .00005833  00000+0  22148-3 0  9990
2 59738  42.9992 304.3119 0000558 238.2056 121.8741 15.27554472 51422
STARLINK-31726          
1 59739U 24090K   25093.28742752 -.00007796  00000+0 -27380-3 0  9997
2 59739  42.9999 305.5968 0000883 277.0518  83.0233 15.27614724 51387
STARLINK-31759          
1 59740U 24090L   25091.89647535 -.00006542  00000+0 -22814-3 0  9992
2 59740  43.0011 314.0753 0001506 279.3456  80.7226 15.27618359 51162
STARLINK-31818          
1 59741U 24090M   25093.58881927 -.00000355  00000+0 -33612-5 0  9992
2 59741  43.0008 304.4108 0001643 260.1798  99.8868 15.27576512 51421
STARLINK-31816          
1 59742U 24090N   25093.27601650 -.00001710  00000+0 -52636-4 0  9994
2 59742  43.0003 306.3485 0001140 281.8183  78.2541 15.27580751 51357
STARLINK-31809          
1 59743U 24090P   25093.29028116  .00002655  00000+0  70780-4 0  9994
2 59743  43.0057 301.2916 0001907 273.1402  86.9236 15.40713067 51438
STARLINK-31779          
1 59744U 24090Q   25093.29515270 -.00005751  00000+0 -19962-3 0  9993
2 59744  43.0022 305.6519 0001073 280.2649  79.8081 15.27583877 51386
STARLINK-31805          
1 59745U 24090R   25093.28358133 -.00000715  00000+0 -16462-4 0  9994
2 59745  43.0021 305.5657 0001129 288.2127  71.8602 15.27579196 51389
STARLINK-31681          
1 59746U 24090S   25093.28797052 -.00031853  00000+0 -75382-3 0  9994
2 59746  43.0122 301.2764 0007789 274.9873  85.0095 15.40845764 51433
STARLINK-31636          
1 59747U 24090T   25093.29772991 -.00002977  00000+0 -98754-4 0  9995
2 59747  43.0013 305.6726 0000948 270.9706  89.1037 15.27567171 51383
STARLINK-31640          
1 59748U 24090U   25092.99255455  .00005234  00000+0  19924-3 0  9991
2 59748  43.0045 307.6785 0001145 287.9968  72.0759 15.27641040 51339
STARLINK-31677          
1 59749U 24090V   25092.02340122  .00010768  00000+0  40069-3 0  9994
2 59749  43.0020 313.3067 0001176 285.4852  74.5870 15.27544538 51176
STARLINK-31783          
1 59750U 24090W   25092.88112151 -.00000867  00000+0 -21978-4 0  9999
2 59750  43.0042 308.5653 0001495 262.0940  97.9742 15.27586773 51301
STARLINK-31808          
1 59751U 24090X   25093.01818142 -.00002708  00000+0 -88906-4 0  9999
2 59751  43.0030 307.0140 0001138 281.8783  78.1941 15.27586827 51337
STARLINK-31822          
1 59752U 24090Y   25093.56305435  .00010558  00000+0  39175-3 0  9999
2 59752  42.9974 304.2236 0001270 135.7235 224.3718 15.27653933 51413
STARLINK-11125 [DTC]    
1 59753U 24091A   25093.33914595 -.00008051  00000+0 -61767-4 0  9999
2 59753  53.1573  84.3640 0000950  96.6818 263.4308 15.69671026 52053
STARLINK-11118 [DTC]    
1 59754U 24091B   25093.28038199 -.00002806  00000+0 -18332-4 0  9993
2 59754  53.1591  84.6929 0001284  74.2897 285.8262 15.69676750 52042
